[{"OBJECT_NAME":"STARLINK-5202","OBJECT_ID":"2022-175D","EPOCH":"2026-03-09T05:05:12.072192","MEAN_MOTION":15.08825177,"ECCENTRICITY":0.00012482,"INCLINATION":53.2189,"RA_OF_ASC_NODE":46.4911,"ARG_OF_PERICENTER":94.6506,"MEAN_ANOMALY":265.4628,"EPHEMERIS_TYPE":0,"CLASSIFICATION_TYPE":"U","NORAD_CAT_ID":54761,"ELEMENT_SET_NO":999,"REV_AT_EPOCH":17984,"BSTAR":-2.3163783e-5,"MEAN_MOTION_DOT":-6.56e-6,"MEAN_MOTION_DDOT":0},{"OBJECT_NAME":"FENGYUN 1C DEB","OBJECT_ID":"1999-025DVA","EPOCH":"2026-03-08T04:27:49.439232","MEAN_MOTION":15.15496966,"ECCENTRICITY":0.00338373,"INCLINATION":98.8203,"RA_OF_ASC_NODE":206.4896,"ARG_OF_PERICENTER":4.2711,"MEAN_ANOMALY":355.88,"EPHEMERIS_TYPE":0,"CLASSIFICATION_TYPE":"U","NORAD_CAT_ID":36225,"ELEMENT_SET_NO":999,"REV_AT_EPOCH":68062,"BSTAR":0.0036229129,"MEAN_MOTION_DOT":0.00070122,"MEAN_MOTION_DDOT":0}]
